{"fetched_at":"2026-07-21T17:53:10.368Z","source":"https://celestrak.org/NORAD/elements/gp.php?GROUP=spire&FORMAT=JSON","constellation":"spire","records":[{"OBJECT_NAME":"LEMUR-1","OBJECT_ID":"2014-033AL","EPOCH":"2026-07-21T04:18:45.629856","CLASSIFICATION_TYPE":"U","MEAN_MOTION":14.85348111,"ECCENTRICITY":0.00472841,"INCLINATION":97.7916,"RA_OF_ASC_NODE":351.2395,"ARG_OF_PERICENTER":328.0179,"MEAN_ANOMALY":31.8168,"EPHEMERIS_TYPE":0,"NORAD_CAT_ID":40044,"ELEMENT_SET_NO":999,"REV_AT_EPOCH":65051,"BSTAR":0.00012595045,"MEAN_MOTION_DOT":0.00001049,"MEAN_MOTION_DDOT":0},{"OBJECT_NAME":"LEMUR-2-GREENBERG","OBJECT_ID":"2017-042N","EPOCH":"2026-07-21T04:27:34.765056","CLASSIFICATION_TYPE":"U","MEAN_MOTION":15.32272934,"ECCENTRICITY":0.00074813,"INCLINATION":97.3842,"RA_OF_ASC_NODE":22.6818,"ARG_OF_PERICENTER":234.7479,"MEAN_ANOMALY":125.3063,"EPHEMERIS_TYPE":0,"NORAD_CAT_ID":42837,"ELEMENT_SET_NO":999,"REV_AT_EPOCH":49359,"BSTAR":0.00041140494,"MEAN_MOTION_DOT":0.00012759,"MEAN_MOTION_DDOT":0},{"OBJECT_NAME":"LEMUR-2-ANDIS","OBJECT_ID":"2017-042P","EPOCH":"2026-07-21T00:05:09.368160","CLASSIFICATION_TYPE":"U","MEAN_MOTION":15.36075973,"ECCENTRICITY":0.00075391,"INCLINATION":97.3692,"RA_OF_ASC_NODE":22.8067,"ARG_OF_PERICENTER":233.9542,"MEAN_ANOMALY":126.1004,"EPHEMERIS_TYPE":0,"NORAD_CAT_ID":42838,"ELEMENT_SET_NO":999,"REV_AT_EPOCH":49364,"BSTAR":0.00046171179,"MEAN_MOTION_DOT":0.00016171,"MEAN_MOTION_DDOT":0},{"OBJECT_NAME":"LEMUR-2-MONSON","OBJECT_ID":"2017-042Q","EPOCH":"2026-07-21T00:10:45.471936","CLASSIFICATION_TYPE":"U","MEAN_MOTION":15.28852397,"ECCENTRICITY":0.00057111,"INCLINATION":97.4103,"RA_OF_ASC_NODE":22.4228,"ARG_OF_PERICENTER":221.0699,"MEAN_ANOMALY":139.0112,"EPHEMERIS_TYPE":0,"NORAD_CAT_ID":42839,"ELEMENT_SET_NO":999,"REV_AT_EPOCH":49333,"BSTAR":0.0003872085,"MEAN_MOTION_DOT":0.00010789,"MEAN_MOTION_DDOT":0},{"OBJECT_NAME":"LEMUR-2-FURIAUS","OBJECT_ID":"2017-042R","EPOCH":"2026-07-21T00:09:37.559808","CLASSIFICATION_TYPE":"U","MEAN_MOTION":15.31249211,"ECCENTRICITY":0.00056786,"INCLINATION":97.3789,"RA_OF_ASC_NODE":20.3821,"ARG_OF_PERICENTER":304.6433,"MEAN_ANOMALY":55.4272,"EPHEMERIS_TYPE":0,"NORAD_CAT_ID":42840,"ELEMENT_SET_NO":999,"REV_AT_EPOCH":49338,"BSTAR":0.00040767871,"MEAN_MOTION_DOT":0.0001224,"MEAN_MOTION_DDOT":0},{"OBJECT_NAME":"LEMUR-2-PETERG","OBJECT_ID":"2017-042S","EPOCH":"2026-07-21T01:45:11.348064","CLASSIFICATION_TYPE":"U","MEAN_MOTION":15.35169626,"ECCENTRICITY":0.00037492,"INCLINATION":97.4006,"RA_OF_ASC_NODE":27.1934,"ARG_OF_PERICENTER":196.098,"MEAN_ANOMALY":164.0145,"EPHEMERIS_TYPE":0,"NORAD_CAT_ID":42841,"ELEMENT_SET_NO":999,"REV_AT_EPOCH":49363,"BSTAR":0.00045823567,"MEAN_MOTION_DOT":0.00015579,"MEAN_MOTION_DDOT":0},{"OBJECT_NAME":"LEMUR-2-DEMBITZ","OBJECT_ID":"2017-042T","EPOCH":"2026-07-21T00:38:11.677920","CLASSIFICATION_TYPE":"U","MEAN_MOTION":15.3122102,"ECCENTRICITY":0.00052315,"INCLINATION":97.3839,"RA_OF_ASC_NODE":23.4497,"ARG_OF_PERICENTER":247.5353,"MEAN_ANOMALY":112.5335,"EPHEMERIS_TYPE":0,"NORAD_CAT_ID":42842,"ELEMENT_SET_NO":999,"REV_AT_EPOCH":49352,"BSTAR":0.00037611491,"MEAN_MOTION_DOT":0.00011274,"MEAN_MOTION_DDOT":0},{"OBJECT_NAME":"LEMUR-2-ZACHARY","OBJECT_ID":"2017-042W","EPOCH":"2026-07-21T05:43:07.190688","CLASSIFICATION_TYPE":"U","MEAN_MOTION":15.53110374,"ECCENTRICITY":0.00029841,"INCLINATION":97.3582,"RA_OF_ASC_NODE":34.6701,"ARG_OF_PERICENTER":218.6447,"MEAN_ANOMALY":141.4593,"EPHEMERIS_TYPE":0,"NORAD_CAT_ID":42845,"ELEMENT_SET_NO":999,"REV_AT_EPOCH":49448,"BSTAR":0.00064470332,"MEAN_MOTION_DOT":0.00040411,"MEAN_MOTION_DDOT":0},{"OBJECT_NAME":"LEMUR-2-AMANDA-SVANTE","OBJECT_ID":"2021-034B","EPOCH":"2026-07-21T04:24:01.805472","CLASSIFICATION_TYPE":"U","MEAN_MOTION":15.36198437,"ECCENTRICITY":0.00047835,"INCLINATION":97.5741,"RA_OF_ASC_NODE":281.413,"ARG_OF_PERICENTER":130.3042,"MEAN_ANOMALY":229.862,"EPHEMERIS_TYPE":0,"NORAD_CAT_ID":48269,"ELEMENT_SET_NO":999,"REV_AT_EPOCH":28627,"BSTAR":0.00071970247,"MEAN_MOTION_DOT":0.00025366,"MEAN_MOTION_DDOT":0},{"OBJECT_NAME":"LEMUR-2-SPECIAL-K","OBJECT_ID":"2021-034F","EPOCH":"2026-07-20T19:04:36.454368","CLASSIFICATION_TYPE":"U","MEAN_MOTION":15.76795894,"ECCENTRICITY":0.00061937,"INCLINATION":97.5625,"RA_OF_ASC_NODE":291.3914,"ARG_OF_PERICENTER":210.4851,"MEAN_ANOMALY":149.6055,"EPHEMERIS_TYPE":0,"NORAD_CAT_ID":48273,"ELEMENT_SET_NO":999,"REV_AT_EPOCH":28696,"BSTAR":0.0013543084,"MEAN_MOTION_DOT":0.00222432,"MEAN_MOTION_DDOT":0},{"OBJECT_NAME":"LEMUR-2-EMBRIONOVIS","OBJECT_ID":"2023-084AQ","EPOCH":"2026-07-20T21:42:17.767584","CLASSIFICATION_TYPE":"U","MEAN_MOTION":15.38325154,"ECCENTRICITY":0.00087682,"INCLINATION":97.6332,"RA_OF_ASC_NODE":347.426,"ARG_OF_PERICENTER":185.5549,"MEAN_ANOMALY":174.5599,"EPHEMERIS_TYPE":0,"NORAD_CAT_ID":56970,"ELEMENT_SET_NO":999,"REV_AT_EPOCH":17286,"BSTAR":0.00026694621,"MEAN_MOTION_DOT":0.00010011,"MEAN_MOTION_DDOT":0},{"OBJECT_NAME":"LEMUR-2-DEVERILL-M-T","OBJECT_ID":"2023-100F","EPOCH":"2026-07-21T01:46:42.692736","CLASSIFICATION_TYPE":"U","MEAN_MOTION":15.41278283,"ECCENTRICITY":0.00048154,"INCLINATION":99.4448,"RA_OF_ASC_NODE":250.6635,"ARG_OF_PERICENTER":272.1205,"MEAN_ANOMALY":87.9483,"EPHEMERIS_TYPE":0,"NORAD_CAT_ID":57391,"ELEMENT_SET_NO":999,"REV_AT_EPOCH":16646,"BSTAR":0.00048265183,"MEAN_MOTION_DOT":0.00020004,"MEAN_MOTION_DDOT":0},{"OBJECT_NAME":"LEMUR-2-BASS","OBJECT_ID":"2023-174D","EPOCH":"2026-07-21T04:16:17.542848","CLASSIFICATION_TYPE":"U","MEAN_MOTION":15.44122446,"ECCENTRICITY":0.00072346,"INCLINATION":97.3836,"RA_OF_ASC_NODE":287.39,"ARG_OF_PERICENTER":60.2085,"MEAN_ANOMALY":299.9882,"EPHEMERIS_TYPE":0,"NORAD_CAT_ID":58259,"ELEMENT_SET_NO":999,"REV_AT_EPOCH":15060,"BSTAR":0.0002923941,"MEAN_MOTION_DOT":0.00013311,"MEAN_MOTION_DDOT":0},{"OBJECT_NAME":"LEMUR-2-JK0903EM1407","OBJECT_ID":"2023-174CJ","EPOCH":"2026-07-20T23:33:47.234880","CLASSIFICATION_TYPE":"U","MEAN_MOTION":15.53266939,"ECCENTRICITY":0.00030097,"INCLINATION":97.3917,"RA_OF_ASC_NODE":293.4451,"ARG_OF_PERICENTER":9.0409,"MEAN_ANOMALY":351.0898,"EPHEMERIS_TYPE":0,"NORAD_CAT_ID":58336,"ELEMENT_SET_NO":999,"REV_AT_EPOCH":15097,"BSTAR":0.00033439569,"MEAN_MOTION_DOT":0.0002098,"MEAN_MOTION_DDOT":0},{"OBJECT_NAME":"LEMUR-2-MJR092620","OBJECT_ID":"2023-174CN","EPOCH":"2026-07-21T06:43:44.164128","CLASSIFICATION_TYPE":"U","MEAN_MOTION":15.46007697,"ECCENTRICITY":0.00047411,"INCLINATION":97.3965,"RA_OF_ASC_NODE":292.9656,"ARG_OF_PERICENTER":7.5822,"MEAN_ANOMALY":352.5498,"EPHEMERIS_TYPE":0,"NORAD_CAT_ID":58340,"ELEMENT_SET_NO":999,"REV_AT_EPOCH":15091,"BSTAR":0.00031688038,"MEAN_MOTION_DOT":0.00015386,"MEAN_MOTION_DDOT":0},{"OBJECT_NAME":"LEMUR-2-NIMBUS2000","OBJECT_ID":"2024-022A","EPOCH":"2026-07-21T02:41:11.552064","CLASSIFICATION_TYPE":"U","MEAN_MOTION":15.41275158,"ECCENTRICITY":0.00081161,"INCLINATION":97.4083,"RA_OF_ASC_NODE":52.566,"ARG_OF_PERICENTER":7.9726,"MEAN_ANOMALY":352.1648,"EPHEMERIS_TYPE":0,"NORAD_CAT_ID":58899,"ELEMENT_SET_NO":999,"REV_AT_EPOCH":13749,"BSTAR":0.00040331239,"MEAN_MOTION_DOT":0.0001673,"MEAN_MOTION_DDOT":0}]}
